start=new Date('2022-12-25T00:00:00.000Z').valueOf();
sats=[{"REV_AT_EPOCH":"5876","EPOCH":"2022-12-24T17:27:17.506080","INCLINATION":"53.2170","BSTAR":"0.00028691000000","DECAY_DATE":null,"PERIAPSIS":"537.725","MEAN_MOTION_DOT":"0.00004282","FILE":"3721442","COUNTRY_CODE":"US","CENTER_NAME":"EARTH","SEMIMAJOR_AXIS":"6917.848","MEAN_ANOMALY":"336.6618","APOAPSIS":"541.702","RCS_SIZE":"LARGE","TIME_SYSTEM":"UTC","MEAN_MOTION_DDOT":"0.0000000000000","RA_OF_ASC_NODE":"5.7895","NORAD_CAT_ID":"49748","LAUNCH_DATE":"2021-12-02","PERIOD":"95.437","MEAN_ELEMENT_THEORY":"SGP4","TLE_LINE1":"1 49748U 21115AA  22358.72728595  .00004282  00000-0  28691-3 0  9992","MEAN_MOTION":"15.08850492","GP_ID":"221379790","EPHEMERIS_TYPE":"0","OBJECT_ID":"2021-115AA","ELEMENT_SET_NO":"999","SITE":"AFETR","CLASSIFICATION_TYPE":"U","ARG_OF_PERICENTER":"23.4504","REF_FRAME":"TEME","OBJECT_NAME":"STARLINK-3248","TLE_LINE2":"2 49748  53.2170   5.7895 0002874  23.4504 336.6618 15.08850492 58766","ECCENTRICITY":"0.00028740","OBJECT_TYPE":"PAYLOAD"},{"LAUNCH_DATE":"2021-12-02","NORAD_CAT_ID":"49749","MEAN_ELEMENT_THEORY":"SGP4","PERIOD":"95.437","TLE_LINE1":"1 49749U 21115AB  22358.71624964  .00001040  00000-0  83407-4 0  9993","MEAN_MOTION":"15.08846631","GP_ID":"221380040","SITE":"AFETR","ELEMENT_SET_NO":"999","OBJECT_ID":"2021-115AB","EPHEMERIS_TYPE":"0","ARG_OF_PERICENTER":"41.1891","REF_FRAME":"TEME","TLE_LINE2":"2 49749  53.2176   5.8246 0002450  41.1891 318.9285 15.08846631 58752","OBJECT_NAME":"STARLINK-3250","CLASSIFICATION_TYPE":"U","OBJECT_TYPE":"PAYLOAD","ECCENTRICITY":"0.00024500","REV_AT_EPOCH":"5875","EPOCH":"2022-12-24T17:11:23.968896","INCLINATION":"53.2176","BSTAR":"0.00008340700000","DECAY_DATE":null,"PERIAPSIS":"538.030","FILE":"3721442","COUNTRY_CODE":"US","MEAN_MOTION_DOT":"0.00001040","APOAPSIS":"541.420","RCS_SIZE":"LARGE","SEMIMAJOR_AXIS":"6917.860","CENTER_NAME":"EARTH","MEAN_ANOMALY":"318.9285","RA_OF_ASC_NODE":"5.8246","TIME_SYSTEM":"UTC","MEAN_MOTION_DDOT":"0.0000000000000"},{"MEAN_MOTION_DOT":"0.00002287","COUNTRY_CODE":"US","FILE":"3721442","PERIAPSIS":"537.959","BSTAR":"0.00016170000000","DECAY_DATE":null,"INCLINATION":"53.2167","EPOCH":"2022-12-24T17:37:54.177312","REV_AT_EPOCH":"5876","MEAN_MOTION_DDOT":"0.0000000000000","TIME_SYSTEM":"UTC","RA_OF_ASC_NODE":"5.7457","SEMIMAJOR_AXIS":"6917.843","CENTER_NAME":"EARTH","MEAN_ANOMALY":"329.6403","RCS_SIZE":"LARGE","APOAPSIS":"541.458","MEAN_MOTION":"15.08852096","TLE_LINE1":"1 49750U 21115AC  22358.73465483  .00002287  00000-0  16170-3 0  9992","PERIOD":"95.437","MEAN_ELEMENT_THEORY":"SGP4","LAUNCH_DATE":"2021-12-02","NORAD_CAT_ID":"49750","ECCENTRICITY":"0.00025290","OBJECT_TYPE":"PAYLOAD","CLASSIFICATION_TYPE":"U","TLE_LINE2":"2 49750  53.2167   5.7457 0002529  30.4736 329.6403 15.08852096 58767","OBJECT_NAME":"STARLINK-3236","REF_FRAME":"TEME","ARG_OF_PERICENTER":"30.4736","OBJECT_ID":"2021-115AC","EPHEMERIS_TYPE":"0","ELEMENT_SET_NO":"999","SITE":"AFETR","GP_ID":"221380791"},{"NORAD_CAT_ID":"49751","LAUNCH_DATE":"2021-12-02","PERIOD":"95.438","MEAN_ELEMENT_THEORY":"SGP4","TLE_LINE1":"1 49751U 21115AD  22358.72361578  .00000428  00000-0  45043-4 0  9999","MEAN_MOTION":"15.08833958","GP_ID":"221381541","OBJECT_ID":"2021-115AD","EPHEMERIS_TYPE":"0","ELEMENT_SET_NO":"999","SITE":"AFETR","CLASSIFICATION_TYPE":"U","ARG_OF_PERICENTER":"27.0656","REF_FRAME":"TEME","TLE_LINE2":"2 49751  53.2169   5.7982 0002890  27.0656 333.0486 15.08833958 58763","OBJECT_NAME":"STARLINK-3229","ECCENTRICITY":"0.00028900","OBJECT_TYPE":"PAYLOAD","REV_AT_EPOCH":"5876","EPOCH":"2022-12-24T17:22:00.403392","INCLINATION":"53.2169","DECAY_DATE":null,"BSTAR":"0.00004504300000","PERIAPSIS":"537.765","MEAN_MOTION_DOT":"0.00000428","FILE":"3721442","COUNTRY_CODE":"US","MEAN_ANOMALY":"333.0486","SEMIMAJOR_AXIS":"6917.899","CENTER_NAME":"EARTH","RCS_SIZE":"LARGE","APOAPSIS":"541.763","TIME_SYSTEM":"UTC","MEAN_MOTION_DDOT":"0.0000000000000","RA_OF_ASC_NODE":"5.7982"},{"MEAN_MOTION_DDOT":"0.0000000000000","TIME_SYSTEM":"UTC","RA_OF_ASC_NODE":"357.1733","SEMIMAJOR_AXIS":"6917.862","MEAN_ANOMALY":"331.2544","CENTER_NAME":"EARTH","APOAPSIS":"541.558","RCS_SIZE":"LARGE","MEAN_MOTION_DOT":"0.00002235","COUNTRY_CODE":"US","FILE":"3721189","PERIAPSIS":"537.896","DECAY_DATE":null,"BSTAR":"0.00015850000000","INCLINATION":"53.2167","EPOCH":"2022-12-24T10:03:29.547072","REV_AT_EPOCH":"5885","ECCENTRICITY":"0.00026470","OBJECT_TYPE":"PAYLOAD","CLASSIFICATION_TYPE":"U","OBJECT_NAME":"STARLINK-3209","TLE_LINE2":"2 49752  53.2167 357.1733 0002647  28.8594 331.2544 15.08845942 58851","REF_FRAME":"TEME","ARG_OF_PERICENTER":"28.8594","EPHEMERIS_TYPE":"0","OBJECT_ID":"2021-115AE","SITE":"AFETR","ELEMENT_SET_NO":"999","GP_ID":"221348036","MEAN_MOTION":"15.08845942","TLE_LINE1":"1 49752U 21115AE  22358.41909198  .00002235  00000-0  15850-3 0  9992","PERIOD":"95.437","MEAN_ELEMENT_THEORY":"SGP4","NORAD_CAT_ID":"49752","LAUNCH_DATE":"2021-12-02"},{"CENTER_NAME":"EARTH","SEMIMAJOR_AXIS":"6917.885","MEAN_ANOMALY":"324.2346","RCS_SIZE":"LARGE","APOAPSIS":"541.525","TIME_SYSTEM":"UTC","MEAN_MOTION_DDOT":"0.0000000000000","RA_OF_ASC_NODE":"5.7744","DECAY_DATE":null,"BSTAR":"0.00005299000000","PERIAPSIS":"537.975","MEAN_MOTION_DOT":"0.00000555","FILE":"3721442","COUNTRY_CODE":"US","REV_AT_EPOCH":"5876","EPOCH":"2022-12-24T17:32:36.176928","INCLINATION":"53.2183","CLASSIFICATION_TYPE":"U","ARG_OF_PERICENTER":"35.8818","REF_FRAME":"TEME","TLE_LINE2":"2 49753  53.2183   5.7744 0002566  35.8818 324.2346 15.08838536 58768","OBJECT_NAME":"STARLINK-3200","ECCENTRICITY":"0.00025660","OBJECT_TYPE":"PAYLOAD","GP_ID":"221380539","OBJECT_ID":"2021-115AF","EPHEMERIS_TYPE":"0","ELEMENT_SET_NO":"999","SITE":"AFETR","TLE_LINE1":"1 49753U 21115AF  22358.73097427  .00000555  00000-0  52990-4 0  9991","MEAN_MOTION":"15.08838536","NORAD_CAT_ID":"49753","LAUNCH_DATE":"2021-12-02","PERIOD":"95.438","MEAN_ELEMENT_THEORY":"SGP4"},{"RCS_SIZE":"LARGE","APOAPSIS":"541.416","CENTER_NAME":"EARTH","SEMIMAJOR_AXIS":"6917.822","MEAN_ANOMALY":"317.6326","RA_OF_ASC_NODE":"357.1847","TIME_SYSTEM":"UTC","MEAN_MOTION_DDOT":"0.0000000000000","REV_AT_EPOCH":"5885","EPOCH":"2022-12-24T09:54:16.026336","INCLINATION":"53.2188","BSTAR":"0.00008901200000","DECAY_DATE":null,"PERIAPSIS":"537.958","FILE":"3721189","COUNTRY_CODE":"US","MEAN_MOTION_DOT":"0.00001129","GP_ID":"221349033","SITE":"AFETR","ELEMENT_SET_NO":"999","EPHEMERIS_TYPE":"0","OBJECT_ID":"2021-115AG","REF_FRAME":"TEME","ARG_OF_PERICENTER":"42.4860","TLE_LINE2":"2 49754  53.2188 357.1847 0002499  42.4860 317.6326 15.08859043 58858","OBJECT_NAME":"STARLINK-3193","CLASSIFICATION_TYPE":"U","OBJECT_TYPE":"PAYLOAD","ECCENTRICITY":"0.00024990","NORAD_CAT_ID":"49754","LAUNCH_DATE":"2021-12-02","MEAN_ELEMENT_THEORY":"SGP4","PERIOD":"95.436","TLE_LINE1":"1 49754U 21115AG  22358.41268549  .00001129  00000-0  89012-4 0  9995","MEAN_MOTION":"15.08859043"},{"MEAN_ELEMENT_THEORY":"SGP4","PERIOD":"95.437","LAUNCH_DATE":"2021-12-02","NORAD_CAT_ID":"49755","MEAN_MOTION":"15.08841379","TLE_LINE1":"1 49755U 21115AH  22358.73834304  .00001121  00000-0  88522-4 0  9996","SITE":"AFETR","ELEMENT_SET_NO":"999","OBJECT_ID":"2021-115AH","EPHEMERIS_TYPE":"0","GP_ID":"221381042","OBJECT_TYPE":"PAYLOAD","ECCENTRICITY":"0.00013850","OBJECT_NAME":"STARLINK-3210","TLE_LINE2":"2 49755  53.2168   5.7287 0001385  90.4070 269.7081 15.08841379 58768","REF_FRAME":"TEME","ARG_OF_PERICENTER":"90.4070","CLASSIFICATION_TYPE":"U","INCLINATION":"53.2168","EPOCH":"2022-12-24T17:43:12.838656","REV_AT_EPOCH":"5876","COUNTRY_CODE":"US","FILE":"3721442","MEAN_MOTION_DOT":"0.00001121","PERIAPSIS":"538.783","DECAY_DATE":null,"BSTAR":"0.00008852200000","RA_OF_ASC_NODE":"5.7287","MEAN_MOTION_DDOT":"0.0000000000000","TIME_SYSTEM":"UTC","APOAPSIS":"540.699","RCS_SIZE":"LARGE","CENTER_NAME":"EARTH","SEMIMAJOR_AXIS":"6917.876","MEAN_ANOMALY":"269.7081"},{"SEMIMAJOR_AXIS":"6917.876","MEAN_ANOMALY":"326.9504","CENTER_NAME":"EARTH","APOAPSIS":"541.472","RCS_SIZE":"LARGE","MEAN_MOTION_DDOT":"0.0000000000000","TIME_SYSTEM":"UTC","RA_OF_ASC_NODE":"355.9117","REV_AT_EPOCH":"5889","INCLINATION":"53.2169","EPOCH":"2022-12-24T16:40:55.815744","PERIAPSIS":"538.010","DECAY_DATE":null,"BSTAR":"0.00007670400000","MEAN_MOTION_DOT":"0.00000933","COUNTRY_CODE":"US","FILE":"3721442","GP_ID":"221379791","EPHEMERIS_TYPE":"0","OBJECT_ID":"2021-115AJ","ELEMENT_SET_NO":"999","SITE":"AFETR","CLASSIFICATION_TYPE":"U","OBJECT_NAME":"STARLINK-3207","TLE_LINE2":"2 49756  53.2169 355.9117 0002502  33.1644 326.9504 15.08841493 58892","ARG_OF_PERICENTER":"33.1644","REF_FRAME":"TEME","ECCENTRICITY":"0.00025020","OBJECT_TYPE":"PAYLOAD","LAUNCH_DATE":"2021-12-02","NORAD_CAT_ID":"49756","PERIOD":"95.437","MEAN_ELEMENT_THEORY":"SGP4","TLE_LINE1":"1 49756U 21115AJ  22358.69509046  .00000933  00000-0  76704-4 0  9993","MEAN_MOTION":"15.08841493"},{"REV_AT_EPOCH":"5996","INCLINATION":"53.2169","EPOCH":"2022-12-24T10:08:46.823424","PERIAPSIS":"538.130","DECAY_DATE":null,"BSTAR":"0.00011817000000","COUNTRY_CODE":"US","FILE":"3721390","MEAN_MOTION_DOT":"0.00001594","RCS_SIZE":"LARGE","APOAPSIS":"541.272","SEMIMAJOR_AXIS":"6917.836","MEAN_ANOMALY":"321.3019","CENTER_NAME":"EARTH","RA_OF_ASC_NODE":"357.1370","MEAN_MOTION_DDOT":"0.0000000000000","TIME_SYSTEM":"UTC","NORAD_CAT_ID":"49757","LAUNCH_DATE":"2021-12-02","MEAN_ELEMENT_THEORY":"SGP4","PERIOD":"95.437","TLE_LINE1":"1 49757U 21115AK  22358.42276416  .00001594  00000-0  11817-3 0  9994","MEAN_MOTION":"15.08854571","GP_ID":"221356743","SITE":"AFETR","ELEMENT_SET_NO":"999","EPHEMERIS_TYPE":"0","OBJECT_ID":"2021-115AK","TLE_LINE2":"2 49757  53.2169 357.1370 0002271  38.8136 321.3019 15.08854571 59969","OBJECT_NAME":"STARLINK-3197","REF_FRAME":"TEME","ARG_OF_PERICENTER":"38.8136","CLASSIFICATION_TYPE":"U","OBJECT_TYPE":"PAYLOAD","ECCENTRICITY":"0.00022710"}];
